P/2021 L2 (Leonard),e,21.0650,266.6541,51.4931,4.048458,0.1209956,0.52079511,124.6574,05/19.0/2024,2000,g 17.0,4.0
# From MPEC 2024-H50
C/2021 L3 (Borisov),h,02/14.6755/2022,78.5633,344.9969,91.6322,1.004484,8.458705,2000,6.0,4.0
# From MPEC 2022-TA0
P/2021 N1 (ZTF),e,11.4892,301.1486,21.2391,2.978779,0.1917108,0.67595970,206.6651,05/19.0/2024,2000,g 19.0,4.0
# From MPEC 2024-GJ3
P/2021 N2 (Fuls),e,13.0612,221.7317,177.5528,6.943253,0.0538716,0.45255385,49.3847,05/19.0/2024,2000,g  9.5,4.0
# From MPEC 2022-YB4
C/2021 N3 (PANSTARRS),e,26.7495,337.5029,304.7098,145.5048,0.0005615,0.96071087,0.7692,05/19.0/2024,2000,g  8.5,4.0
# From MPEC 2022-A21
C/2021 O1 (Nishimura),e,27.5940,41.5923,74.3904,2866,0.0000064,0.99972653,0.0000,08/14.3032/2021,2000,g 10.5,4.0
# From MPEC 2022-L66
C/2021 O3 (PANSTARRS),h,04/21.1182/2022,56.8009,188.9533,299.9586,1.000043,0.286019,2000,10.5,4.0
# From MPEC 2024-F34
C/2021 P1 (PANSTARRS),e,51.6339,359.6886,40.5012,2887,0.0000064,0.99848420,0.0000,06/02.6056/2022,2000,g 11.0,4.0
# From MPEC 2023-R20
C/2021 P2 (PANSTARRS),e,150.0626,32.0832,76.7198,5326,0.0000025,0.99904826,0.0000,01/22.9981/2023,2000,g  9.0,4.0
# From MPEC 2024-GJ3
P/2021 P3 (PANSTARRS),e,27.1613,358.2447,334.0788,4.412429,0.1063378,0.33866969,115.4235,05/19.0/2024,2000,g 14.0,4.0
# From MPEC 2023-A50
C/2021 P4 (ATLAS),e,56.3277,348.0635,175.7950,296.8130,0.0001927,0.99636306,0.0000,07/30.3388/2022,2000,g  9.5,4.0
# From MPEC 2023-E68
P/2021 PE20 (ATLAS),e,20.0013,99.6261,210.4675,3.745945,0.1359446,0.66996903,146.4891,05/19.0/2024,2000,g 17.0,4.0
# From MPEC 2023-FK0
C/2021 Q3 (ATLAS),e,77.7376,307.9147,114.1191,75.61086,0.0014991,0.93114924,1.2648,05/19.0/2024,2000,g  8.0,4.0
# From MPEC 2024-JU4
C/2021 Q4 (Fuls),h,06/11.4421/2023,71.4870,183.3278,147.0687,1.002863,7.565376,2000,6.0,4.0
# From MPEC 2022-C56
P/2021 Q5 (ATLAS),e,10.7398,239.7572,180.9345,3.286885,0.1653969,0.62466946,164.0855,05/19.0/2024,2000,g 15.0,4.0
# From MPEC 2023-XP6
C/2021 Q6 (PANSTARRS),h,03/25.1249/2024,161.8452,133.5402,141.0300,1.001512,8.707853,2000,6.0,4.0
# From MPEC 2023-FK0
C/2021 QM45 (PANSTARRS),e,22.8150,354.5967,72.8596,390.7074,0.0001276,0.99289779,0.0000,08/13.6458/2022,2000,g 11.0,4.0
# From MPEC 2022-X67
P/2021 R1 (PANSTARRS),e,5.5220,143.2360,220.2311,8.295423,0.0412521,0.41107631,36.6023,05/19.0/2024,2000,g 11.0,4.0
# From MPEC 2022-X67
C/2021 R2 (PANSTARRS),e,134.4836,16.3085,32.5067,4278,0.0000035,0.99828987,0.0000,12/27.8012/2021,2000,g  7.5,4.0
# From MPEC 2021-W31
P/2021 R3 (PANSTARRS),e,19.9330,304.1942,2.6904,3.770934,0.1345955,0.33103053,146.6668,05/19.0/2024,2000,g 16.0,4.0
# From MPEC 2021-W31
P/2021 R4 (Wierzchos),e,21.0247,321.2948,56.7198,5.625449,0.0738700,0.58579380,70.0292,05/19.0/2024,2000,g 16.0,4.0
# From MPEC 2024-JU4
P/2021 R5 (Rankin),e,7.8545,219.9539,167.5439,4.795926,0.0938416,0.30646053,80.4480,05/19.0/2024,2000,g 12.0,4.0
# From MPEC 2021-W31
P/2021 R6 (Groeller),e,34.9144,176.1598,220.8213,6.285402,0.0625467,0.59338338,58.1559,05/19.0/2024,2000,g 14.5,4.0
# From MPEC 2022-X67
C/2021 R7 (PANSTARRS),e,158.8643,170.1704,140.3174,874.7215,0.0000381,0.99353854,0.0000,04/16.6415/2021,2000,g 10.5,4.0
# From MPEC 2021-Y10
P/2021 R8 (Sheppard),e,2.2032,167.0745,190.8347,3.019108,0.1878824,0.29301312,179.3689,05/19.0/2024,2000,g 18.5,4.0
# From MPEC 2023-J29
C/2021 S1 (ATLAS),h,03/01.5483/2022,52.0524,299.8697,148.2395,1.002599,6.120977,2000,7.0,4.0
# From MPEC 2024-JU4
C/2021 S3 (PANSTARRS),h,02/14.7091/2024,58.5330,215.6211,6.8531,1.000256,1.320204,2000,5.5,4.0
# From MPEC 2024-GJ3
C/2021 S4 (Tsuchinshan),e,17.4782,5.4806,72.9352,162.2044,0.0004771,0.95875913,0.0653,05/19.0/2024,2000,g  6.5,4.0
# From MPEC 2022-OB6
C/2021 T1 (Lemmon),e,140.3615,56.8443,51.5635,1935,0.0000116,0.99841840,0.0000,10/14.4047/2021,2000,g 12.5,4.0
# From MPEC 2023-A50
C/2021 T2 (Fuls),h,06/08.0649/2022,117.5384,223.2334,263.5833,1.000512,1.246623,2000,12.0,4.0
# From MPEC 2024-JU4
C/2021 T4 (Lemmon),e,160.7781,257.8880,329.8164,24110,0.0000003,0.99993849,0.0000,07/31.5410/2023,2000,g  7.5,4.0
# From MPEC 2022-ED3
P/2021 U1 (Wierzchos),e,30.5519,246.7910,145.1699,8.533841,0.0395355,0.71299501,37.9881,05/19.0/2024,2000,g 14.5,4.0
# From MPEC 2022-L66
P/2021 U3 (Attard-Maury),e,69.9613,75.0954,335.2789,4.195129,0.1147060,0.54978733,107.4887,05/19.0/2024,2000,g 15.5,4.0
# From MPEC 2021-W31
C/2021 U4 (Leonard),e,152.8895,241.8085,237.3344,45.23313,0.0032398,0.96045047,2.8474,05/19.0/2024,2000,g 17.0,4.0
# From MPEC 2022-WQ9
C/2021 U5 (Catalina),e,39.0448,182.7316,321.4261,217.8153,0.0003066,0.98916318,0.0000,01/26.6863/2022,2000,g 13.0,4.0
# From MPEC 2022-CN4
C/2021 V1 (Rankin),e,71.4518,207.6721,195.1723,676.4561,0.0000560,0.99554118,0.0000,04/30.5836/2022,2000,g 13.0,4.0
# From MPEC 2024-JU4
P/2021 V2 (Fuls),e,12.6949,232.2755,259.8563,9.076082,0.0360459,0.61474721,17.4251,05/19.0/2024,2000,g 10.0,4.0
# From MPEC 2024-JU4
C/2021 X1 (Maury-Attard),h,05/27.1411/2023,140.0987,10.5928,334.5671,1.000258,3.233519,2000,7.0,4.0
# From MPEC 2024-E08
C/2021 X2 (Bok),h,07/08.1242/2022,137.1609,228.8239,193.3226,1.000982,2.996022,2000,13.0,4.0
# From MPEC 2024-GJ3
C/2021 Y1 (ATLAS),h,04/30.7637/2023,77.1942,244.7670,245.8346,1.001195,2.032553,2000,7.0,4.0
# From MPEC 2022-YN2
C/2022 A1 (Sarneczky),e,116.5394,285.5067,201.2445,352.8717,0.0001487,0.99644534,0.0000,01/31.0500/2022,2000,g 18.0,4.0
# From MPEC 2024-JU4
C/2022 A2 (PANSTARRS),h,02/18.2246/2023,108.1342,171.5839,88.3678,1.000235,1.735468,2000,9.5,4.0
# From MPEC 2024-JU4
C/2022 A3 (Lemmon-ATLAS),e,88.3410,325.4729,234.8524,861.7130,0.0000390,0.99570196,0.0000,09/28.8741/2023,2000,g  8.0,4.0
# From MPEC 2022-K19
P/2022 B1 (Wierzchos),e,10.9905,325.4279,148.8746,5.467275,0.0770988,0.65340135,62.7140,05/19.0/2024,2000,g 16.5,4.0
# From MPEC 2022-YB4
A/2022 B3,e,132.0537,286.1878,150.6952,694.2498,0.0000539,0.99466983,0.0000,01/17.1586/2022,2000,g 16.5,2.0
# From MPEC 2022-GA9
C/2022 B4 (Bok),e,20.0475,340.5961,152.9539,385.8529,0.0001300,0.99643112,0.0000,01/30.0784/2022,2000,g 21.0,4.0
# From MPEC 2023-J29
P/2022 BV9 (Lemmon),e,11.9290,337.3102,16.3187,4.363487,0.1081318,0.23420155,140.9250,05/19.0/2024,2000,g  9.5,4.0
# From MPEC 2023-J29
P/2022 C1 (PANSTARRS),e,4.7624,113.1162,9.3731,7.227887,0.0507209,0.44876809,46.9817,05/19.0/2024,2000,g 12.0,4.0
# From MPEC 2023-VM5
P/2022 C2 (PANSTARRS),e,9.9828,135.2605,89.2135,6.036451,0.0664556,0.44185582,43.3266,05/19.0/2024,2000,g 12.5,4.0
# From MPEC 2023-UR6
P/2022 C3 (PANSTARRS),e,12.8207,139.0411,93.8714,9.622749,0.0330184,0.54554902,22.7321,05/19.0/2024,2000,g 11.5,4.0
# From MPEC 2022-K19
P/2022 D1 (PANSTARRS),e,44.0776,47.9584,88.6564,7.403442,0.0489276,0.54759036,48.6720,05/19.0/2024,2000,g 12.5,4.0
# From MPEC 2022-K19
C/2022 D2 (Kowalski),e,22.6646,312.4096,177.8039,375.8655,0.0001353,0.99586752,0.0000,03/27.7258/2022,2000,g 17.0,4.0
# From MPEC 2024-JU4
C/2022 E2 (ATLAS),h,09/14.1075/2024,137.1257,125.3704,41.7156,1.000813,3.666324,2000,5.0,4.0
# From MPEC 2024-GJ3
C/2022 E3 (ZTF),h,01/12.7125/2023,109.1685,302.5470,145.8091,1.000060,1.112486,2000,7.5,4.0
# From MPEC 2024-GJ3
C/2022 F1 (ATLAS),e,57.9849,350.6426,278.2929,4090,0.0000038,0.99853922,0.0000,08/05.2011/2022,2000,g  7.0,4.0
# From MPEC 2022-QD9
C/2022 F2 (NEOWISE),e,97.3140,58.7831,200.6224,23.96454,0.0084014,0.93370371,6.6194,05/19.0/2024,2000,g 14.5,4.0
# From MPEC 2024-JU4
C/2022 H1 (PANSTARRS),e,49.8611,6.3514,246.3050,898.9396,0.0000366,0.99144565,0.0000,01/19.1078/2024,2000,g  6.0,4.0
# From MPEC 2022-VC5
C/2022 J1 (Maury-Attard),e,105.9533,280.7713,305.6589,47.61007,0.0030002,0.96632225,2.4599,05/19.0/2024,2000,g 14.9,4.0
# From MPEC 2023-M14
C/2022 J2 (Bok),e,149.1375,252.6481,133.0726,90.32477,0.0011481,0.97978997,0.0000,10/26.9416/2022,2000,g  9.0,4.0
# From MPEC 2024-GJ3
C/2022 JK5 (PANSTARRS),e,16.8324,59.6444,247.2636,43.91613,0.0033866,0.93876721,1.3068,05/19.0/2024,2000,g 11.0,4.0
# From MPEC 2022-ST7
C/2022 K1 (Leonard),h,12/17.1782/2021,41.9655,136.3369,142.6304,1.001804,3.988861,2000,11.0,4.0
# From MPEC 2023-CD7
C/2022 L1 (Catalina),e,123.4483,300.0328,59.8335,494.1423,0.0000897,0.99678030,0.0000,09/28.1731/2022,2000,g 15.8,4.0
# From MPEC 2024-JU4
C/2022 L2 (ATLAS),h,03/12.2614/2024,129.3140,39.2413,199.9173,1.001341,2.692738,2000,6.5,4.0
# From MPEC 2024-DC6
P/2022 L3 (ATLAS),e,21.5427,29.8085,10.3697,6.503266,0.0594301,0.62770682,33.6967,05/19.0/2024,2000,g 16.5,4.0
# From MPEC 2022-N37
C/2022 L4 (PANSTARRS),e,141.2451,66.0658,125.3202,285.8639,0.0002039,0.98945915,0.0000,12/08.9451/2021,2000,g 14.0,4.0
# From MPEC 2024-GJ3
C/2022 N1 (Attard-Maury),e,164.7334,301.8750,41.0412,36.97430,0.0043838,0.95996290,2.7046,05/19.0/2024,2000,g 16.9,4.0
# From MPEC 2024-JU4
C/2022 N2 (PANSTARRS),h,07/31.6316/2025,5.5027,319.7399,75.3676,1.003660,3.825999,2000,6.0,4.0
# From MPEC 2024-A43
C/2022 O1 (ATLAS),h,02/15.9113/2022,71.0413,49.9173,268.9347,1.002856,7.432847,2000,6.0,4.0
# From MPEC 2023-HD1
P/2022 O2 (PANSTARRS),e,9.4231,330.4916,48.6403,6.305657,0.0622456,0.72128986,30.9974,05/19.0/2024,2000,g 16.2,4.0
# From MPEC 2023-N01
C/2022 P1 (NEOWISE),e,154.6030,205.0818,249.9357,18.48477,0.0124018,0.91372690,6.6652,05/19.0/2024,2000,g 13.0,4.0
# From MPEC 2023-XP6
P/2022 P2 (ZTF),e,12.4399,291.1998,137.6896,4.489052,0.1036268,0.55818873,70.2613,05/19.0/2024,2000,g 12.5,4.0
# From MPEC 2023-HD1
C/2022 P3 (ZTF),e,59.5171,72.2180,0.1535,253.5073,0.0002442,0.98988980,0.0000,07/27.4637/2022,2000,g  9.0,4.0
# From MPEC 2023-R20
C/2022 Q2 (ATLAS),e,151.4796,352.9527,44.0698,32.85515,0.0052336,0.94996859,2.4773,05/19.0/2024,2000,g 13.0,4.0
# From MPEC 2024-GJ3
C/2022 QE78 (ATLAS),h,09/10.2785/2025,36.5528,119.9362,0.3926,1.004075,5.479424,2000,5.0,4.0
# From MPEC 2023-W26
P/2022 R1 (PANSTARRS),e,7.3716,175.8815,221.9869,7.203575,0.0509779,0.50422480,11.4747,05/19.0/2024,2000,g 11.5,4.0
# From MPEC 2022-Y15
C/2022 R2 (ATLAS),e,52.9076,60.4129,78.3380,422.3931,0.0001135,0.99850469,0.0000,10/25.3021/2022,2000,g 17.0,4.0
# From MPEC 2024-JU4
